QIANFAN 18A             
1 66033U 25233A   25302.97236387  .00000770  00000+0  31714-3 0  9992
2 66033  88.9942  67.0695 0015802 169.1753 190.9784 14.25907183  1808
QIANFAN 18B             
1 66034U 25233B   25302.97199889  .00000777  00000+0  31963-3 0  9991
2 66034  88.9941  67.0693 0015370 171.7315 188.4135 14.25989126  1808
QIANFAN 18C             
1 66035U 25233C   25302.97123542  .00000783  00000+0  32161-3 0  9993
2 66035  88.9942  67.0694 0014695 170.9700 189.1761 14.26072624  1809
QIANFAN 18D             
1 66036U 25233D   25302.97106778  .00000789  00000+0  32402-3 0  9990
2 66036  88.9942  67.0693 0014782 170.6384 189.5088 14.26097782  1809
QIANFAN 18E             
1 66037U 25233E   25302.97092303  .00000791  00000+0  32454-3 0  9999
2 66037  88.9942  67.0693 0014726 171.0318 189.1142 14.26143013  1806
QIANFAN 18F             
1 66038U 25233F   25302.97068021  .00000747  00000+0  30604-3 0  9996
2 66038  88.9942  67.0692 0015347 173.1129 187.0279 14.26147008  1805
